#dP2023  2 20  0  0  0.00000000      96 __u+U IGS14 FIT  IAC
## 2250  86400.00000000   900.00000000 59995 0.0000000000000
+  120   C06C07C08C09C10C11C12C13C14C16C19C20C21C22C23C24C25
+        C26C27C28C29C30C32C33C34C35C36C37C38C39C40C41C42C43
+        C44C45C46E01E02E03E04E05E07E08E09E10E11E12E13E14E15
+        E18E19E21E24E25E26E27E30E31E33E34E36G01G02G03G04G05
+        G06G07G08G09G10G11G12G13G14G15G16G17G18G19G20G21G22
+        G23G24G25G26G27G28G29G30G31G32J02J03J04R01R02R03R04
+        R05R07R08R09R11R12R13R14R15R16R17R18R19R20R21R22R24
+        R25  0  0  0  0  0  0  0  0  0  0  0  0  0  0  0  0
++         9  9  9  9  9 10  9  9  9  9  8  8  8  8  8  8  8
++         7  8  8  8  8  8  8  8  8  8 10  8  9  8  8  8  8
++         8  7  8  4  4  4  4  4  4  4  4  5  5  5  5  4  4
++         4  4  4  5  4  4  4  4  5  4  4  4  4  4  3  3  4
++         4  4  4  3  4  3  3  4  3  4  4  3  4  3  4  4  3
++         4  3  3  4  4  3  3  4  3  3  9  9 10  8  7  7  7
++         7  7  7  7  7  7  8  7  7  7  7  7  7  7  7  7  7
++         8  0  0  0  0  0  0  0  0  0  0  0  0  0  0  0  0
%c M  cc GPS ccc cccc cccc cccc cccc ccccc ccccc ccccc ccccc
%c cc cc ccc ccc cccc cccc cccc cccc ccccc ccccc ccccc ccccc
%f  1.2500000  1.025000000  0.00000000000  0.000000000000000
%f  0.0000000  0.000000000  0.00000000000  0.000000000000000
%i    0    0    0    0      0      0      0      0         0
%i    0    0    0    0      0      0      0      0         0
/* INFORMATION & ANALYSIS CENTER (IAC)            FINAL DATA
/* S/V CLOCKS ARE ALIGNED TO GNSS TIME                      
/* G:C1WC2W R:C1PC2P E:C1XC5X C:C2IC6I J:C1CC2S             
/* PCV:IGS20_2247 OL/AL:FES2004  NONE     YN ORB:CoN CLK:CoN
*  2023 02 20  0 15  0.00000000
PC06  -6912.588490  23702.403712  34198.868588   -191.634220
PC07 -17548.169084  35781.002575 -13954.090193     89.009278
PC08  -2035.860290  38344.286885 -17184.347341    525.035525
PC09   2877.310796  26769.095071  32963.969137    744.976688
PC10 -11719.365323  35921.358030 -18910.260465      7.602593
PC11  16567.096422  14829.090087 -16786.560659   -110.928829
PC12  -3381.869729  14995.302374 -23250.833542    462.531337
PC13   1945.056654  40255.144189 -11757.847052    211.896036
PC14   6694.947165  15645.441293  22148.465791    500.169866
PC16  -8636.788756  22600.881435  34736.595575    158.079463
PC19 -14329.500621  -7143.084931 -22827.793897   -894.588347
PC20    469.024347 -20531.510025 -18864.953068    715.785244
PC21 -16175.758868  22533.186677   3180.405400   -910.330871
PC22 -21621.966345  11001.177534 -13808.581381   -624.089788
PC23  16861.505171   -509.149375 -22233.807085   -879.224626
PC24   5923.010383  26818.840533   4837.130207   -389.024465
PC25  17085.697638  17570.784313 -13337.880295     74.917313
PC26  -6291.269076  20126.524016  18241.384855    -81.208890
PC27  12927.474377 -12567.126655  21286.101386     99.353749
PC28  25977.120439  -2091.393314   9986.713625     72.434657
PC29 -24621.940331  -9838.167141   8686.375683     83.403679
PC30  -7612.147335 -16219.226488  21382.145975      1.104339
PC32  16059.362013 -22608.719864  -3054.667858   -617.635700
PC33  14318.875535   7208.342658  22849.581977   -872.412725
PC34   9031.183104  16170.121551 -20892.417389    109.941167
PC35 -26319.610726   2279.529602  -8933.458713    677.580945
PC36 -16475.419930 -18557.768179  12787.591685   -613.794063
PC37   7717.448780 -18913.421380 -19019.336252   -817.317422
PC38  -7896.534750  33966.420587 -23551.521945     59.947750
PC39 -15546.671515  19926.302107  33747.802081     -1.878200
PC40 -24821.242707  31595.319766 -13148.174478    -15.558040
PC41  21564.736808 -10452.674090  14353.179527   -632.556367
PC42  -1551.527376  21208.300672  18129.235501   -827.419435
PC43  24159.817044  10384.424760  -9388.115692      8.033834
PC44 -12624.202313  13113.194763 -21153.713145     20.786172
PC45 -16637.269291    893.149483  22380.458211    -62.636717
PC46  -7125.947217 -26811.512047  -3231.149742    -34.620689
PE01  -2460.220070  29046.090503  -5109.961856   -600.384406
PE02   2167.833904 -29011.792243   5516.798442     21.835412
PE03   1763.604178 -17973.298441 -23452.792250   -651.725245
PE04  18598.785105   9335.848435  21059.191776    -62.021747
PE05  21596.378254 -16237.291771 -12088.353910    -93.691402
PE07 -28501.766668   4964.090016  -6265.009813    -24.213708
PE08 -18441.930867  -9275.041172 -21214.822364    -38.889147
PE09  28456.654252  -4908.423189   6485.929197   -842.220446
PE10  24611.459437  13881.754037   8818.503692   -513.634885
PE11  23186.768342   5085.756084  17690.299212    953.893330
PE12  22028.860675  19783.272792   -552.968891   -428.719060
PE13 -23429.366204  -5845.586927 -17103.091228     -0.385703
PE14    496.011296 -15683.675693  18259.278643    147.078792
PE15 -21894.011984 -19890.526947    918.031803     -2.301054
PE18  -7312.167390  21009.225763 -23025.048934   -370.834865
PE19  -4865.737660  18279.755763  22773.828170  -3192.479048
PE21 -13202.482254  23634.184352  11950.985635   -513.155816
PE24  17398.391859  -3314.649260 -23741.429686  -1123.686184
PE25  13356.283319 -23420.489132 -12233.396468   -599.746465
PE26 -10623.016615  12200.011158 -24780.785627     23.449126
PE27 -17376.858561   4309.682087  23563.922613   -516.472398
PE30 -10886.800144 -18010.401735  20807.395766  -1256.441754
PE31  11280.115609  17326.318521 -21179.063560   -516.501507
PE33   7467.101744  22087.924710 -18237.311515   -451.519650
PE34  -7642.943069 -22110.874419  18134.535954    -30.989827
PE36  11238.753043 -11439.399078  24886.069166    -14.990638
PG01  21258.079956  13110.465152   9220.111968    210.655720
PG02 -22084.697754  -8604.934583 -11115.127461   -619.679928
PG03  13937.782195   5102.425611  21908.319616   -361.014510
PG04  24519.456852   1557.170977  10241.835428    -23.792561
PG05  -7118.211965 -19949.077032 -16119.904087   -116.568564
PG06   2098.420824 -16938.803709  20390.131437    574.292789
PG07  18888.132838    253.836773 -18426.152198    237.798279
PG08  16669.772767   8821.966280 -18912.441942   -109.307285
PG09  25466.097469  -7635.258616   -171.626223   -215.029262
PG10 -11201.077027  22617.446051  -7567.079043    -25.426994
PG11  -9694.999616 -22112.726795  11116.807798   -108.886618
PG12 -12996.531758  -7923.249591  21493.441074   -342.413528
PG13  -8858.646988 -13551.833165 -21265.964841    478.844219
PG14  13509.536828 -20572.203679  -9811.533800    -23.035039
PG15 -17872.471761  -7495.676764 -18724.357238     14.955915
PG16   3164.151910  21686.904025 -14965.959227   -519.289574
PG17  19170.853357 -13174.218359  13345.287316    701.096456
PG18 -16250.430941   3524.522982 -20741.659281   -147.822516
PG19   9536.435824 -14909.227433  19485.135846    279.998764
PG20  -1845.881872 -25941.429986  -5884.985436    449.657978
PG21  21373.948211  16490.586276   1529.513038    154.088296
PG22  -5426.479491  15860.855570  21000.917730    430.496155
PG23 -15104.025530  13566.647100 -17042.149593      6.907805
PG24 -22136.127738 -14350.594100   4282.361798    -80.915548
PG25 -15937.299259   3324.874827  20622.396660    421.543987
PG26  -3840.468578  26044.496544  -1678.547479    241.627848
PG27   5109.453460  14289.308343 -22043.476130     98.339626
PG28  -3660.223712  16244.862326  20660.201671     19.079157
PG29 -26265.699595   3139.094899   2769.199569   -587.039205
PG30  10045.341168 -12144.278013 -21270.910389   -529.714775
PG31   -996.850096  18275.074427  18913.845879   -209.702155
PG32 -15912.466665  15261.586739  14829.999175   -401.346554
PJ02 -30566.879545  25477.845312  18973.968606     -0.937933
PJ03 -27561.018556  16258.085404 -22852.638891      0.362218
PJ04 -23693.627908  34506.313352     94.976995     94.258744
PR01 -13300.225290  18615.856302  11296.271722     23.366293
PR02   2361.362594  11694.556085  22584.134362    -23.237411
PR03  16289.645688  -1350.959923  19653.275703     72.818457
PR04  20924.667530 -13321.847976   6009.919203    176.478202
PR05  14324.237212 -18056.305973 -10944.032056    108.051627
PR07 -16673.817775   1961.147546 -19141.007475     50.271911
PR08 -20813.668166  13554.244696  -5675.144574    -69.517660
PR09  -7654.571468 -23475.849678   6258.163526    105.037437
PR11  -9605.379914   7068.762439  22554.416137     -6.929708
PR12  -1642.142537  22759.152094  11398.260859     25.135009
PR13   6655.593477  24199.876003  -4559.878876    -32.193249
PR14  11731.219177  10815.322319 -19902.023019     24.374602
PR15   9455.103260  -8184.534609 -22220.565011     90.956031
PR16   1547.462424 -22586.988092 -11722.323008     11.492923
PR17  23856.479497   8978.227640    318.063395    606.366484
PR18  20010.240487    216.129042  15872.077119     67.679023
PR19   7370.484597  -7990.234504  23078.577822   -222.512457
PR20 -13374.962245 -13808.039125  16749.894304    -88.004421
PR21 -24013.138909  -8392.372236  -2025.148823   -374.636025
PR22 -19564.023682   -143.841478 -16327.900879     71.706340
PR24  14289.183938  13675.661684 -16084.866041    148.091551
PR25 -23366.275220 -10251.643125     19.718062     55.581925
EOF
